ASTROCAST-0402          
1 55109U 23001DE  26068.80661100  .00010930  00000+0  41835-3 0  9996
2 55109  97.5556 160.6821 0004209 216.6984 143.3966 15.26734153129364
STARLINK-32080          
1 59683U 24086B   26068.40814716  .00001583  00000+0  67046-4 0  9997
2 59683  43.0020  65.3845 0000768 267.2778  92.7986 15.27565794104033
